NORAD_CAT_ID,OBJECT_NAME,OBJECT_TYPE,EPOCH,MEAN_MOTION,ECCENTRICITY,INCLINATION,RA_OF_ASC_NODE,ARG_OF_PERICENTER,MEAN_ANOMALY,BSTAR,MEAN_MOTION_DOT,MEAN_MOTION_DDOT,TLE_LINE0,TLE_LINE1,TLE_LINE2,SEMIMAJOR_AXIS,PERIOD,APOGEE,PERIGEE,DECAYED
55789.0,STARLINK-5815,PAYLOAD,2024-03-31 13:00:21,14.9834049,0.0003003,70.001,189.9021,266.9463,93.1353,4.8138e-06,-3.6e-07,0.0,0 STARLINK-5815,1 55789U 23028BA  24091.54191987 -.00000036  00000-0  48138-5 0  9998,2 55789  70.0010 189.9021 0003003 266.9463  93.1353 14.98340490 60941,6950.16,96.106,574.113,569.938,0.0
55789.0,STARLINK-5815,PAYLOAD,2024-03-31 14:36:29,14.98339672,0.0002851,70.001,189.7332,262.367,97.7165,5.5254e-06,-2.7e-07,0.0,0 STARLINK-5815,1 55789U 23028BA  24091.60867994 -.00000027  00000-0  55254-5 0  9990,2 55789  70.0010 189.7332 0002851 262.3670  97.7165 14.98339672 60967,6950.163,96.106,574.009,570.046,0.0
55789.0,STARLINK-5815,PAYLOAD,2024-03-31 16:12:37,14.98341519,0.000295,70.0013,189.5648,264.5928,95.4894,2.505e-06,-6.3e-07,0.0,0 STARLINK-5815,1 55789U 23028BA  24091.67543839 -.00000063  00000-0  25050-5 0  9997,2 55789  70.0013 189.5648 0002950 264.5928  95.4894 14.98341519 60976,6950.157,96.106,574.073,569.972,0.0
55789.0,STARLINK-5815,PAYLOAD,2024-04-01 00:13:18,14.98333464,0.0002484,70.0033,188.7247,264.8643,95.2233,-1.3647e-05,-2.56e-06,0.0,0 STARLINK-5815,1 55789U 23028BA  24092.00924329 -.00000256  00000-0 -13647-4 0  9995,2 55789  70.0033 188.7247 0002484 264.8643  95.2233 14.98333464 61014,6950.182,96.107,573.774,570.321,0.0
55789.0,STARLINK-5815,PAYLOAD,2024-04-01 13:02:24,14.98321173,0.0002941,70.0006,187.3779,269.587,90.4952,-9.5847e-05,-1.236e-05,0.0,0 STARLINK-5815,1 55789U 23028BA  24092.54333470 -.00001236  00000-0 -95847-4 0  9996,2 55789  70.0006 187.3779 0002941 269.5870  90.4952 14.98321173 61098,6950.22,96.108,574.129,570.041,0.0
55789.0,STARLINK-5815,PAYLOAD,2024-04-02 13:04:23,14.98342567,0.0003015,70.001,184.8536,270.166,89.9153,5.0725e-05,5.12e-06,0.0,0 STARLINK-5815,1 55789U 23028BA  24093.54471668  .00000512  00000-0  50725-4 0  9999,2 55789  70.0010 184.8536 0003015 270.1660  89.9153 14.98342567 61247,6950.154,96.106,574.115,569.924,0.0
55789.0,STARLINK-5815,PAYLOAD,2024-04-02 16:16:39,14.98343511,0.0003003,70.0009,184.5169,270.4326,89.6489,6.2776e-05,6.56e-06,0.0,0 STARLINK-5815,1 55789U 23028BA  24093.67823481  .00000656  00000-0  62776-4 0  9995,2 55789  70.0009 184.5169 0003003 270.4326  89.6489 14.98343511 61275,6950.151,96.106,574.103,569.929,0.0
55789.0,STARLINK-5815,PAYLOAD,2024-04-03 05:05:44,14.98321562,0.0002602,70.0023,183.1726,269.8974,90.1887,0.00011818,1.317e-05,0.0,0 STARLINK-5815,1 55789U 23028BA  24094.21232619  .00001317  00000-0  11818-3 0  9998,2 55789  70.0023 183.1726 0002602 269.8974  90.1887 14.98321562 61349,6950.219,96.108,573.892,570.276,0.0
55789.0,STARLINK-5815,PAYLOAD,2024-04-03 13:06:25,14.98322899,0.0002616,70.0021,182.3311,253.4809,106.6063,9.613e-05,1.054e-05,0.0,0 STARLINK-5815,1 55789U 23028BA  24094.54612613  .00001054  00000-0  96130-4 0  9999,2 55789  70.0021 182.3311 0002616 253.4809 106.6063 14.98322899 61409,6950.215,96.107,573.898,570.262,0.0
55789.0,STARLINK-5815,PAYLOAD,2024-04-03 22:43:13,14.98325894,0.0002965,70.0009,181.3196,269.2588,90.8231,2.0824e-05,1.55e-06,0.0,0 STARLINK-5815,1 55789U 23028BA  24094.94668726  .00000155  00000-0  20824-4 0  9997,2 55789  70.0009 181.3196 0002965 269.2588  90.8231 14.98325894 61466,6950.206,96.107,574.131,570.01,0.0
55789.0,STARLINK-5815,PAYLOAD,2024-04-04 05:07:45,14.98334811,0.0002961,70.0008,180.6462,269.4542,90.6278,-0.00010639,-1.362e-05,0.0,0 STARLINK-5815,1 55789U 23028BA  24095.21372513 -.00001362  00000-0 -10639-3 0  9999,2 55789  70.0008 180.6462 0002961 269.4542  90.6278 14.98334811 61492,6950.178,96.107,574.101,569.985,0.0
55789.0,STARLINK-5815,PAYLOAD,2024-04-04 14:44:34,14.9833466,0.0002961,70.0007,179.6362,270.7011,89.3809,-9.1091e-05,-1.18e-05,0.0,0 STARLINK-5815,1 55789U 23028BA  24095.61428367 -.00001180  00000-0 -91091-4 0  9992,2 55789  70.0007 179.6362 0002961 270.7011  89.3809 14.98334660 61569,6950.178,96.107,574.101,569.986,0.0
55789.0,STARLINK-5815,PAYLOAD,2024-04-04 22:45:14,14.98337332,0.0002967,70.0007,178.7949,270.5228,89.5591,-6.482e-05,-8.66e-06,0.0,0 STARLINK-5815,1 55789U 23028BA  24095.94808009 -.00000866  00000-0 -64820-4 0  9993,2 55789  70.0007 178.7949 0002967 270.5228  89.5591 14.98337332 61619,6950.17,96.107,574.097,569.973,0.0
55789.0,STARLINK-5815,PAYLOAD,2024-04-05 05:09:46,14.9833293,0.0002993,70.0006,178.1214,270.009,90.0726,4.775e-05,4.77e-06,0.0,0 STARLINK-5815,1 55789U 23028BA  24096.21511921  .00000477  00000-0  47750-4 0  9997,2 55789  70.0006 178.1214 0002993 270.0090  90.0726 14.98332930 61647,6950.184,96.107,574.129,569.969,0.0
55789.0,STARLINK-5815,PAYLOAD,2024-04-05 14:46:34,14.98335203,0.0002994,70.0007,177.1116,269.9327,90.1489,6.5547e-05,6.89e-06,0.0,0 STARLINK-5815,1 55789U 23028BA  24096.61567622  .00000689  00000-0  65547-4 0  9999,2 55789  70.0007 177.1116 0002994 269.9327  90.1489 14.98335203 61710,6950.177,96.107,574.123,569.961,0.0
55789.0,STARLINK-5815,PAYLOAD,2024-04-06 05:11:47,14.9832518,0.0002923,70.001,175.597,269.7082,90.3742,-3.9403e-05,-5.63e-06,0.0,0 STARLINK-5815,1 55789U 23028BA  24097.21652537 -.00000563  00000-0 -39403-4 0  9991,2 55789  70.0010 175.5970 0002923 269.7082  90.3742 14.98325180 61797,6950.208,96.107,574.104,570.041,0.0
55789.0,STARLINK-5815,PAYLOAD,2024-04-06 11:36:19,14.98327544,0.0003115,70.0004,174.9233,268.1257,91.9546,-1.4652e-05,-2.68e-06,0.0,0 STARLINK-5815,1 55789U 23028BA  24097.48356349 -.00000268  00000-0 -14652-4 0  9993,2 55789  70.0004 174.9233 0003115 268.1257  91.9546 14.98327544 61847,6950.2,96.107,574.23,569.9,0.0
55789.0,STARLINK-5815,PAYLOAD,2024-04-07 10:02:13,14.98324101,0.0003096,70.0,172.566,267.5325,92.548,-7.8673e-05,-1.031e-05,0.0,0 STARLINK-5815,1 55789U 23028BA  24098.41820878 -.00001031  00000-0 -78673-4 0  9992,2 55789  70.0000 172.5660 0003096 267.5325  92.5480 14.98324101 61972,6950.211,96.107,574.228,569.924,0.0
55789.0,STARLINK-5815,PAYLOAD,2024-04-07 11:38:21,14.98327651,0.0003134,69.9999,172.3982,268.8987,91.1813,-8.3207e-05,-1.086e-05,0.0,0 STARLINK-5815,1 55789U 23028BA  24098.48496691 -.00001086  00000-0 -83207-4 0  9990,2 55789  69.9999 172.3982 0003134 268.8987  91.1813 14.98327651 61992,6950.2,96.107,574.243,569.887,0.0
55789.0,STARLINK-5815,PAYLOAD,2024-04-08 11:40:21,14.98335435,0.0003064,70.0003,169.8735,269.0575,91.0233,0.0001303,1.462e-05,0.0,0 STARLINK-5815,1 55789U 23028BA  24099.48635650  .00001462  00000-0  13030-3 0  9993,2 55789  70.0003 169.8735 0003064 269.0575  91.0233 14.98335435 62137,6950.176,96.107,574.171,569.912,0.0
55789.0,STARLINK-5815,PAYLOAD,2024-04-08 21:17:10,14.98319703,0.0002961,70.0001,168.8638,266.6721,93.41,0.00029581,3.437e-05,0.0,0 STARLINK-5815,1 55789U 23028BA  24099.88692237  .00003437  00000-0  29581-3 0  9993,2 55789  70.0001 168.8638 0002961 266.6721  93.4100 14.98319703 62204,6950.225,96.108,574.148,570.032,0.0
55789.0,STARLINK-5815,PAYLOAD,2024-04-09 03:41:42,14.98329346,0.0003,70.0001,168.1906,269.7118,90.3697,8.2213e-05,8.88e-06,0.0,0 STARLINK-5815,1 55789U 23028BA  24100.15396045  .00000888  00000-0  82213-4 0  9993,2 55789  70.0001 168.1906 0003000 269.7118  90.3697 14.98329346 62238,6950.195,96.107,574.145,569.975,0.0
55789.0,STARLINK-5815,PAYLOAD,2024-04-09 10:06:14,14.98323621,0.0002992,70.0001,167.5177,269.1533,90.9283,0.00013137,1.475e-05,0.0,0 STARLINK-5815,1 55789U 23028BA  24100.42100327  .00001475  00000-0  13137-3 0  9990,2 55789  70.0001 167.5177 0002992 269.1533  90.9283 14.98323621 62287,6950.213,96.107,574.157,569.998,0.0
55789.0,STARLINK-5815,PAYLOAD,2024-04-09 21:19:10,14.98334809,0.0002902,70.0003,166.3394,266.639,93.4437,-1.4298e-05,-2.64e-06,0.0,0 STARLINK-5815,1 55789U 23028BA  24100.88831846 -.00000264  00000-0 -14298-4 0  9994,2 55789  70.0003 166.3394 0002902 266.6390  93.4437 14.98334809 62358,6950.178,96.107,574.06,570.026,0.0
55789.0,STARLINK-5815,PAYLOAD,2024-04-10 05:19:50,14.98345131,0.0002788,70.0001,165.4983,266.9763,93.1077,-0.00013528,-1.707e-05,0.0,0 STARLINK-5815,1 55789U 23028BA  24101.22211571 -.00001707  00000-0 -13528-3 0  9997,2 55789  70.0001 165.4983 0002788 266.9763  93.1077 14.98345131 62390,6950.146,96.106,573.949,570.073,0.0
55789.0,STARLINK-5815,PAYLOAD,2024-04-10 10:08:14,14.98338581,0.0002989,70.0001,164.9932,268.1076,91.9741,-2.8494e-05,-4.33e-06,0.0,0 STARLINK-5815,1 55789U 23028BA  24101.42239477 -.00000433  00000-0 -28494-4 0  9998,2 55789  70.0001 164.9932 0002989 268.1076  91.9741 14.98338581 62432,6950.166,96.106,574.109,569.954,0.0
55789.0,STARLINK-5815,PAYLOAD,2024-04-10 21:21:11,14.98330621,0.0003078,70.0003,163.815,269.0142,91.0664,-0.00015717,-1.968e-05,0.0,0 STARLINK-5815,1 55789U 23028BA  24101.88971997 -.00001968  00000-0 -15717-3 0  9995,2 55789  70.0003 163.8150 0003078 269.0142  91.0664 14.98330621 62508,6950.191,96.107,574.195,569.917,0.0
55789.0,STARLINK-5815,PAYLOAD,2024-04-11 13:22:32,14.98325403,0.0002947,70.0002,162.1317,268.7189,91.3632,-5.7853e-05,-7.83e-06,0.0,0 STARLINK-5815,1 55789U 23028BA  24102.55732213 -.00000783  00000-0 -57853-4 0  9998,2 55789  70.0002 162.1317 0002947 268.7189  91.3632 14.98325403 62606,6950.207,96.107,574.12,570.024,0.0
55789.0,STARLINK-5815,PAYLOAD,2024-04-11 21:23:12,14.98336094,0.0003132,69.9999,161.2896,265.7734,94.3068,-0.00022251,-2.747e-05,0.0,0 STARLINK-5815,1 55789U 23028BA  24102.89111847 -.00002747  00000-0 -22251-3 0  9994,2 55789  69.9999 161.2896 0003132 265.7734  94.3068 14.98336094 62659,6950.174,96.107,574.216,569.862,0.0
55789.0,STARLINK-5815,PAYLOAD,2024-04-12 03:47:45,14.98328833,0.0003058,69.9998,160.6167,270.2041,89.8767,-4.8872e-05,-6.76e-06,0.0,0 STARLINK-5815,1 55789U 23028BA  24103.15816016 -.00000676  00000-0 -48872-4 0  9991,2 55789  69.9998 160.6167 0003058 270.2041  89.8767 14.98328833 62681,6950.196,96.107,574.187,569.936,0.0
